{
  "type": "FeatureCollection",
  "features": [
    {
      "type": "Feature",
      "properties": {
        "norad_id": 66868,
        "name": "STARLINK-36108",
        "group": "last-30-days",
        "lat": 17.878031320951962,
        "lon": 123.65940845266977,
        "alt_km": 320.249419554234,
        "timestamp": "2025-12-15T19:00:44.078863+00:00",
        "meta_object_name": "STARLINK-36108",
        "meta_object_id": "2025-281W",
        "meta_epoch": "2025-12-14T20:00:06.000192",
        "meta_mean_motion": 15.85573146,
        "meta_eccentricity": 0.00016387,
        "meta_inclination": 43.0008,
        "meta_ra_of_asc_node": 109.3029,
        "meta_arg_of_pericenter": 276.3622,
        "meta_mean_anomaly": 36.0669,
        "meta_ephemeris_type": 0,
        "meta_classification_type": "U",
        "meta_norad_cat_id": 66868,
        "meta_element_set_no": 999,
        "meta_rev_at_epoch": 157,
        "meta_bstar": -0.006483244,
        "meta_mean_motion_dot": -0.01409938,
        "meta_mean_motion_ddot": 0,
        "tle_line1": "1 66868U 25281W   25348.83340278 -.01409938  00000+0 -64832-2 0  9999",
        "tle_line2": "2 66868  43.0008 109.3029 0001638 276.3622  36.0669 15.85573146  1579"
      },
      "geometry": {
        "type": "Point",
        "coordinates": [
          123.65940845266977,
          17.878031320951962
        ]
      }
    },
    {
      "type": "Feature",
      "properties": {
        "norad_id": 66869,
        "name": "STARLINK-36092",
        "group": "last-30-days",
        "lat": 19.515065695722647,
        "lon": 125.75494775659624,
        "alt_km": 320.1168357509796,
        "timestamp": "2025-12-15T19:00:44.078875+00:00",
        "meta_object_name": "STARLINK-36092",
        "meta_object_id": "2025-281X",
        "meta_epoch": "2025-12-14T20:00:06.000192",
        "meta_mean_motion": 15.85548372,
        "meta_eccentricity": 0.0001779,
        "meta_inclination": 43.0007,
        "meta_ra_of_asc_node": 109.2962,
        "meta_arg_of_pericenter": 279.2094,
        "meta_mean_anomaly": 35.9184,
        "meta_ephemeris_type": 0,
        "meta_classification_type": "U",
        "meta_norad_cat_id": 66869,
        "meta_element_set_no": 999,
        "meta_rev_at_epoch": 176,
        "meta_bstar": -0.0065430219,
        "meta_mean_motion_dot": -0.01419818,
        "meta_mean_motion_ddot": 0,
        "tle_line1": "1 66869U 25281X   25348.83340278 -.01419818  00000+0 -65430-2 0  9993",
        "tle_line2": "2 66869  43.0007 109.2962 0001779 279.2094  35.9184 15.85548372  1769"
      },
      "geometry": {
        "type": "Point",
        "coordinates": [
          125.75494775659624,
          19.515065695722647
        ]
      }
    },
    {
      "type": "Feature",
      "properties": {
        "norad_id": 66870,
        "name": "STARLINK-36114",
        "group": "last-30-days",
        "lat": 21.457062280861926,
        "lon": 128.3403193728263,
        "alt_km": 320.2715455906882,
        "timestamp": "2025-12-15T19:00:44.078885+00:00",
        "meta_object_name": "STARLINK-36114",
        "meta_object_id": "2025-281Y",
        "meta_epoch": "2025-12-14T20:00:06.000192",
        "meta_mean_motion": 15.85484307,
        "meta_eccentricity": 0.00017013,
        "meta_inclination": 43.0006,
        "meta_ra_of_asc_node": 109.2876,
        "meta_arg_of_pericenter": 274.6068,
        "meta_mean_anomaly": 43.8817,
        "meta_ephemeris_type": 0,
        "meta_classification_type": "U",
        "meta_norad_cat_id": 66870,
        "meta_element_set_no": 999,
        "meta_rev_at_epoch": 163,
        "meta_bstar": -0.0066028207,
        "meta_mean_motion_dot": -0.01455922,
        "meta_mean_motion_ddot": 0,
        "tle_line1": "1 66870U 25281Y   25348.83340278 -.01455922  00000+0 -66028-2 0  9995",
        "tle_line2": "2 66870  43.0006 109.2876 0001701 274.6068  43.8817 15.85484307  1633"
      },
      "geometry": {
        "type": "Point",
        "coordinates": [
          128.3403193728263,
          21.457062280861926
        ]
      }
    },
    {
      "type": "Feature",
      "properties": {
        "norad_id": 66871,
        "name": "STARLINK-36095",
        "group": "last-30-days",
        "lat": 23.372114155109628,
        "lon": 131.01489945138735,
        "alt_km": 320.1319672868258,
        "timestamp": "2025-12-15T19:00:44.078897+00:00",
        "meta_object_name": "STARLINK-36095",
        "meta_object_id": "2025-281Z",
        "meta_epoch": "2025-12-14T20:00:06.000192",
        "meta_mean_motion": 15.85420431,
        "meta_eccentricity": 0.00016608,
        "meta_inclination": 43.0004,
        "meta_ra_of_asc_node": 109.2785,
        "meta_arg_of_pericenter": 279.4624,
        "meta_mean_anomaly": 42.4347,
        "meta_ephemeris_type": 0,
        "meta_classification_type": "U",
        "meta_norad_cat_id": 66871,
        "meta_element_set_no": 999,
        "meta_rev_at_epoch": 177,
        "meta_bstar": -0.0066994416,
        "meta_mean_motion_dot": -0.01470672,
        "meta_mean_motion_ddot": 0,
        "tle_line1": "1 66871U 25281Z   25348.83340278 -.01470672  00000+0 -66994-2 0  9997",
        "tle_line2": "2 66871  43.0004 109.2785 0001660 279.4624  42.4347 15.85420431  1772"
      },
      "geometry": {
        "type": "Point",
        "coordinates": [
          131.01489945138735,
          23.372114155109628
        ]
      }
    },
    {
      "type": "Feature",
      "properties": {
        "norad_id": 66872,
        "name": "STARLINK-36082",
        "group": "last-30-days",
        "lat": 24.78555898120936,
        "lon": 133.08295116215734,
        "alt_km": 320.056001572736,
        "timestamp": "2025-12-15T19:00:44.078909+00:00",
        "meta_object_name": "STARLINK-36082",
        "meta_object_id": "2025-281AA",
        "meta_epoch": "2025-12-14T20:00:06.000192",
        "meta_mean_motion": 15.85410307,
        "meta_eccentricity": 0.00015599,
        "meta_inclination": 43.0006,
        "meta_ra_of_asc_node": 109.2723,
        "meta_arg_of_pericenter": 278.7503,
        "meta_mean_anomaly": 45.5869,
        "meta_ephemeris_type": 0,
        "meta_classification_type": "U",
        "meta_norad_cat_id": 66872,
        "meta_element_set_no": 999,
        "meta_rev_at_epoch": 163,
        "meta_bstar": -0.0067602066,
        "meta_mean_motion_dot": -0.01481747,
        "meta_mean_motion_ddot": 0,
        "tle_line1": "1 66872U 25281AA  25348.83340278 -.01481747  00000+0 -67602-2 0  9990",
        "tle_line2": "2 66872  43.0006 109.2723 0001559 278.7503  45.5869 15.85410307  1631"
      },
      "geometry": {
        "type": "Point",
        "coordinates": [
          133.08295116215734,
          24.78555898120936
        ]
      }
    },
    {
      "type": "Feature",
      "properties": {
        "norad_id": 66873,
        "name": "STARLINK-36128",
        "group": "last-30-days",
        "lat": 29.459537757279637,
        "lon": 140.66992486840596,
        "alt_km": 319.94206988559563,
        "timestamp": "2025-12-15T19:00:44.078919+00:00",
        "meta_object_name": "STARLINK-36128",
        "meta_object_id": "2025-281AB",
        "meta_epoch": "2025-12-14T20:00:06.000192",
        "meta_mean_motion": 15.8529587,
        "meta_eccentricity": 0.00016977,
        "meta_inclination": 43,
        "meta_ra_of_asc_node": 109.2502,
        "meta_arg_of_pericenter": 281.0123,
        "meta_mean_anomaly": 52.0236,
        "meta_ephemeris_type": 0,
        "meta_classification_type": "U",
        "meta_norad_cat_id": 66873,
        "meta_element_set_no": 999,
        "meta_rev_at_epoch": 177,
        "meta_bstar": -0.0069157758,
        "meta_mean_motion_dot": -0.01504473,
        "meta_mean_motion_ddot": 0,
        "tle_line1": "1 66873U 25281AB  25348.83340278 -.01504473  00000+0 -69158-2 0  9991",
        "tle_line2": "2 66873  43.0000 109.2502 0001697 281.0123  52.0236 15.85295870  1771"
      },
      "geometry": {
        "type": "Point",
        "coordinates": [
          140.66992486840596,
          29.459537757279637
        ]
      }
    },
    {
      "type": "Feature",
      "properties": {
        "norad_id": 66874,
        "name": "STARLINK-36129",
        "group": "last-30-days",
        "lat": 26.552326713073946,
        "lon": 135.80142413761234,
        "alt_km": 320.0525548135183,
        "timestamp": "2025-12-15T19:00:44.078929+00:00",
        "meta_object_name": "STARLINK-36129",
        "meta_object_id": "2025-281AC",
        "meta_epoch": "2025-12-14T20:00:06.000192",
        "meta_mean_motion": 15.85354309,
        "meta_eccentricity": 0.00014942,
        "meta_inclination": 43.0002,
        "meta_ra_of_asc_node": 109.2643,
        "meta_arg_of_pericenter": 279.2524,
        "meta_mean_anomaly": 48.3588,
        "meta_ephemeris_type": 0,
        "meta_classification_type": "U",
        "meta_norad_cat_id": 66874,
        "meta_element_set_no": 999,
        "meta_rev_at_epoch": 177,
        "meta_bstar": -0.0068541545,
        "meta_mean_motion_dot": -0.01496252,
        "meta_mean_motion_ddot": 0,
        "tle_line1": "1 66874U 25281AC  25348.83340278 -.01496252  00000+0 -68542-2 0  9993",
        "tle_line2": "2 66874  43.0002 109.2643 0001494 279.2524  48.3588 15.85354309  1770"
      },
      "geometry": {
        "type": "Point",
        "coordinates": [
          135.80142413761234,
          26.552326713073946
        ]
      }
    }
  ]
}